[{"OBJECT_NAME":"STARLINK-3704","OBJECT_ID":"2022-025D","EPOCH":"2026-03-10T00:00:02.999808","MEAN_MOTION":15.08887845,"ECCENTRICITY":8.629e-5,"INCLINATION":53.0636,"RA_OF_ASC_NODE":34.439,"ARG_OF_PERICENTER":119.4207,"MEAN_ANOMALY":219.0687,"EPHEMERIS_TYPE":0,"CLASSIFICATION_TYPE":"U","NORAD_CAT_ID":51959,"ELEMENT_SET_NO":999,"REV_AT_EPOCH":554,"BSTAR":0.08095622,"MEAN_MOTION_DOT":0.0140974,"MEAN_MOTION_DDOT":0},{"OBJECT_NAME":"CZ-6A DEB","OBJECT_ID":"2022-151ABN","EPOCH":"2026-03-09T19:31:34.351392","MEAN_MOTION":14.91930226,"ECCENTRICITY":0.0114204,"INCLINATION":98.6988,"RA_OF_ASC_NODE":184.3801,"ARG_OF_PERICENTER":80.6585,"MEAN_ANOMALY":280.7523,"EPHEMERIS_TYPE":0,"CLASSIFICATION_TYPE":"U","NORAD_CAT_ID":56246,"ELEMENT_SET_NO":999,"REV_AT_EPOCH":15979,"BSTAR":0.001440011,"MEAN_MOTION_DOT":0.00016487,"MEAN_MOTION_DDOT":0}]
